NORAD_CAT_ID,OBJECT_NAME,OBJECT_TYPE,EPOCH,MEAN_MOTION,ECCENTRICITY,INCLINATION,RA_OF_ASC_NODE,ARG_OF_PERICENTER,MEAN_ANOMALY,BSTAR,MEAN_MOTION_DOT,MEAN_MOTION_DDOT,TLE_LINE0,TLE_LINE1,TLE_LINE2,SEMIMAJOR_AXIS,PERIOD,APOGEE,PERIGEE,DECAYED
49744.0,STARLINK-3231,PAYLOAD,2022-07-11 13:58:47,15.08836658,0.000205,53.2164,31.6288,74.3053,285.8165,0.00097941,0.00015332,0.0,0 STARLINK-3231,1 49744U 21115W   22192.58249276  .00015332  00000-0  97941-3 0  9994,2 49744  53.2164  31.6288 0002050  74.3053 285.8165 15.08836658 33672,6917.891,95.438,541.174,538.337,0.0
49744.0,STARLINK-3231,PAYLOAD,2022-07-11 18:44:56,15.08844446,0.0002014,53.2162,30.7366,74.508,285.6134,0.0010602,0.00016627,0.0,0 STARLINK-3231,1 49744U 21115W   22192.78121254  .00016627  00000-0  10602-2 0  9997,2 49744  53.2162  30.7366 0002014  74.5080 285.6134 15.08844446 33701,6917.8669999999975,95.437,541.125,538.339,0.0
49744.0,STARLINK-3231,PAYLOAD,2022-07-12 12:14:10,15.08863703,0.0001982,53.2159,27.4654,74.4147,285.7064,0.001049,0.00016457,0.0,0 STARLINK-3231,1 49744U 21115W   22193.50984678  .00016457  00000-0  10490-2 0  9991,2 49744  53.2159  27.4654 0001982  74.4147 285.7064 15.08863703 33818,6917.808000000001,95.436,541.044,538.302,0.0
49744.0,STARLINK-3231,PAYLOAD,2022-07-12 20:11:05,15.08872141,0.0001926,53.216,25.9785,75.0596,285.061,0.00099681,0.00015626,0.0,0 STARLINK-3231,1 49744U 21115W   22193.84104063  .00015626  00000-0  99681-3 0  9997,2 49744  53.2160  25.9785 0001926  75.0596 285.0610 15.08872141 34975,6917.781999999997,95.436,540.98,538.315,0.0
49744.0,STARLINK-3231,PAYLOAD,2022-07-13 05:43:24,15.08872513,0.0001955,53.2158,24.19400000000001,76.1169,284.0041,0.00055231,8.521e-05,0.0,0 STARLINK-3231,1 49744U 21115W   22194.23847276  .00008521  00000-0  55231-3 0  9990,2 49744  53.2158  24.1940 0001955  76.1169 284.0041 15.08872513 35034,6917.781,95.435,540.998,538.294,0.0
49744.0,STARLINK-3231,PAYLOAD,2022-07-13 20:01:51,15.08858558,0.0001665999999999,53.2158,21.5176,78.5535,281.5645,0.00012056,1.632e-05,0.0,0 STARLINK-3231,1 49744U 21115W   22194.83462748  .00001632  00000-0  12056-3 0  9997,2 49744  53.2158  21.5176 0001666  78.5535 281.5645 15.08858558 35123,6917.824000000001,95.436,540.841,538.536,0.0
49744.0,STARLINK-3231,PAYLOAD,2022-07-14 05:34:11,15.0883844,0.0001754999999999,53.2161,19.7338,77.0892,283.0296,-0.00014826,-2.647e-05,0.0,0 STARLINK-3231,1 49744U 21115W   22195.23207722 -.00002647  00000-0 -14826-3 0  9997,2 49744  53.2161  19.7338 0001755  77.0892 283.0296 15.08838440 35188,6917.885,95.438,540.964,538.536,0.0
49744.0,STARLINK-3231,PAYLOAD,2022-07-14 11:55:43,15.08842076,0.0001968,53.2167,18.5433,75.796,284.3251,-9.5747e-05,-1.812e-05,0.0,0 STARLINK-3231,1 49744U 21115W   22195.49703600 -.00001812  00000-0 -95747-4 0  9996,2 49744  53.2167  18.5433 0001968  75.7960 284.3251 15.08842076 34111,6917.874,95.437,541.1,538.378,0.0
49744.0,STARLINK-3231,PAYLOAD,2022-07-14 19:52:39,15.08845969,0.0001661,53.2167,17.0575,75.6621,284.4555,-5.1294e-05,-1.104e-05,0.0,0 STARLINK-3231,1 49744U 21115W   22195.82823339 -.00001104  00000-0 -51294-4 0  9998,2 49744  53.2167  17.0575 0001661  75.6621 284.4555 15.08845969 34162,6917.861999999999,95.437,540.876,538.578,0.0
49744.0,STARLINK-3231,PAYLOAD,2022-07-15 05:24:57,15.08847968,0.0001629999999999,53.2165,15.2731,76.719,283.3984,0.0001255,1.7100000000000002e-05,0.0,0 STARLINK-3231,1 49744U 21115W   22196.22567112  .00001710  00000-0  12550-3 0  9999,2 49744  53.2165  15.2731 0001630  76.7190 283.3984 15.08847968 35338,6917.856,95.437,540.849,538.5930000000002,0.0
49744.0,STARLINK-3231,PAYLOAD,2022-07-15 11:46:30,15.0884553,0.0002352,53.2149,14.0845,76.8567,283.2687,9.8953e-05,1.287e-05,0.0,0 STARLINK-3231,1 49744U 21115W   22196.49063422  .00001287  00000-0  98953-4 0  9994,2 49744  53.2149  14.0845 0002352  76.8567 283.2687 15.08845530 34267,6917.863,95.437,541.356,538.101,0.0
49744.0,STARLINK-3231,PAYLOAD,2022-07-15 18:08:03,15.08838937,0.0001629999999999,53.217,12.8937,78.1131,282.0044,6.0373e-05,6.73e-06,0.0,0 STARLINK-3231,1 49744U 21115W   22196.75559611  .00000673  00000-0  60373-4 0  9996,2 49744  53.2170  12.8937 0001630  78.1131 282.0044 15.08838937 35414,6917.884,95.438,540.876,538.621,0.0
49744.0,STARLINK-3231,PAYLOAD,2022-07-16 11:37:17,15.08845842,0.0001520999999999,53.2173,9.6227,80.941,279.1754,0.00036401,5.511e-05,0.0,0 STARLINK-3231,1 49744U 21115W   22197.48423322  .00005511  00000-0  36401-3 0  9996,2 49744  53.2173   9.6227 0001521  80.9410 279.1754 15.08845842 34410,6917.863,95.437,540.78,538.675,0.0
49744.0,STARLINK-3231,PAYLOAD,2022-07-16 19:34:13,15.08842411,0.0001474,53.217,8.1357,74.6617,285.4538,0.00010323,1.355e-05,0.0,0 STARLINK-3231,1 49744U 21115W   22197.81543353  .00001355  00000-0  10323-3 0  9997,2 49744  53.2170   8.1357 0001474  74.6617 285.4538 15.08842411 35578,6917.873000000001,95.437,540.758,538.7180000000002,0.0
49744.0,STARLINK-3231,PAYLOAD,2022-07-16 21:09:36,15.08842708,0.0001481,53.2169,7.8382,74.904,285.2116,9.4092e-05,1.21e-05,0.0,0 STARLINK-3231,1 49744U 21115W   22197.88167314  .00001210  00000-0  94092-4 0  9999,2 49744  53.2169   7.8382 0001481  74.9040 285.2116 15.08842708 34478,6917.871999999999,95.437,540.762,538.7130000000002,0.0
49744.0,STARLINK-3231,PAYLOAD,2022-07-17 11:28:04,15.08840544,0.0001448,53.2174,5.1621,74.6801,285.4351,0.00011291,1.509e-05,0.0,0 STARLINK-3231,1 49744U 21115W   22198.47783259  .00001509  00000-0  11291-3 0  9997,2 49744  53.2174   5.1621 0001448  74.6801 285.4351 15.08840544 34565,6917.879,95.438,540.745,538.742,0.0
49744.0,STARLINK-3231,PAYLOAD,2022-07-17 21:00:23,15.08842856,0.0001396999999999,53.2172,3.3781,70.0718,290.0425,9.169e-05,1.172e-05,0.0,0 STARLINK-3231,1 49744U 21115W   22198.87527122  .00001172  00000-0  91690-4 0  9994,2 49744  53.2172   3.3781 0001397  70.0718 290.0425 15.08842856 35732,6917.871999999999,95.437,540.703,538.77,0.0
49744.0,STARLINK-3231,PAYLOAD,2022-07-18 11:18:52,15.08835445,0.0001364,53.2178,0.7022,70.6921,289.4218,-2.6151e-05,-7.04e-06,0.0,0 STARLINK-3231,1 49744U 21115W   22199.47143845 -.00000704  00000-0 -26151-4 0  9999,2 49744  53.2178   0.7022 0001364  70.6921 289.4218 15.08835445 35821,6917.894,95.438,540.703,538.816,0.0
49744.0,STARLINK-3231,PAYLOAD,2022-07-18 17:40:24,15.08841061,0.0001365,53.2174,359.5126,70.3371,289.7768,6.8871e-05,8.08e-06,0.0,0 STARLINK-3231,1 49744U 21115W   22199.73639195  .00000808  00000-0  68871-4 0  9994,2 49744  53.2174 359.5126 0001365  70.3371 289.7768 15.08841061 35862,6917.877,95.437,540.686,538.798,0.0
49744.0,STARLINK-3231,PAYLOAD,2022-07-19 11:09:39,15.08837817,0.0001341999999999,53.2177,356.2416,74.8492,285.2648,3.7882e-05,3.15e-06,0.0,0 STARLINK-3231,1 49744U 21115W   22200.46503625  .00000315  00000-0  37882-4 0  9996,2 49744  53.2177 356.2416 0001342  74.8492 285.2648 15.08837817 34860,6917.887,95.438,540.68,538.8240000000002,0.0
49744.0,STARLINK-3231,PAYLOAD,2022-07-19 20:41:57,15.08848886,0.0001314,53.2178,354.458,70.4168,289.6966,0.00014215,1.976e-05,0.0,0 STARLINK-3231,1 49744U 21115W   22200.86246740  .00001976  00000-0  14215-3 0  9990,2 49744  53.2178 354.4580 0001314  70.4168 289.6966 15.08848886 34920,6917.853,95.437,540.627,538.809,0.0
49744.0,STARLINK-3231,PAYLOAD,2022-07-20 03:03:30,15.0884291,0.0001294,53.2169,353.2682,63.7426,296.3699,9.7894e-05,1.271e-05,0.0,0 STARLINK-3231,1 49744U 21115W   22201.12743263  .00001271  00000-0  97894-4 0  9995,2 49744  53.2169 353.2682 0001294  63.7426 296.3699 15.08842910 36077,6917.871,95.437,540.632,538.841,0.0
49744.0,STARLINK-3231,PAYLOAD,2022-07-20 11:00:26,15.08835538,0.0001317,53.2179,351.7812,70.069,290.0444,1.8641e-05,9e-08,0.0,0 STARLINK-3231,1 49744U 21115W   22201.45864044  .00000009  00000-0  18641-4 0  9993,2 49744  53.2179 351.7812 0001317  70.0690 290.0444 15.08835538 36129,6917.894,95.438,540.67,538.8480000000002,0.0
49744.0,STARLINK-3231,PAYLOAD,2022-07-20 14:11:12,15.08835723,0.000113,53.2176,351.1859,70.6497,289.4618,1.1539e-05,-1.04e-06,0.0,0 STARLINK-3231,1 49744U 21115W   22201.59112022 -.00000104  00000-0  11539-4 0  9996,2 49744  53.2176 351.1859 0001130  70.6497 289.4618 15.08835723 35035,6917.893,95.438,540.54,538.977,0.0
49744.0,STARLINK-3231,PAYLOAD,2022-07-20 17:21:58,15.08837419,0.0001121,53.2176,350.5914,59.4735,300.6368,1.4149e-05,-6.3e-07,0.0,0 STARLINK-3231,1 49744U 21115W   22201.72359894 -.00000063  00000-0  14149-4 0  9995,2 49744  53.2176 350.5914 0001121  59.4735 300.6368 15.08837419 35054,6917.888000000001,95.438,540.529,538.9780000000002,0.0
49744.0,STARLINK-3231,PAYLOAD,2022-07-21 10:51:13,15.0884382,0.0001193999999999,53.2164,347.3195,66.9025,293.2093,-6.1759e-05,-1.271e-05,0.0,0 STARLINK-3231,1 49744U 21115W   22202.45223993 -.00001271  00000-0 -61759-4 0  9998,2 49744  53.2164 347.3195 0001194  66.9025 293.2093 15.08843820 35168,6917.869000000002,95.437,540.56,538.908,0.0
49744.0,STARLINK-3231,PAYLOAD,2022-07-21 18:48:09,15.08840378,0.0001296999999999,53.2174,345.8336,62.1724,297.9399,6.1402e-06,-1.9e-06,0.0,0 STARLINK-3231,1 49744U 21115W   22202.78344033 -.00000190  00000-0  61402-5 0  9997,2 49744  53.2174 345.8336 0001297  62.1724 297.9399 15.08840378 36321,6917.879,95.438,540.641,538.847,0.0
49744.0,STARLINK-3231,PAYLOAD,2022-07-22 02:45:05,15.08832897,0.0001296999999999,53.2173,344.3464,65.8124,294.3003,-8.376700000000001e-05,-1.621e-05,0.0,0 STARLINK-3231,1 49744U 21115W   22203.11464827 -.00001621  00000-0 -83767-4 0  9997,2 49744  53.2173 344.3464 0001297  65.8124 294.3003 15.08832897 36375,6917.901999999999,95.438,540.664,538.87,0.0
49744.0,STARLINK-3231,PAYLOAD,2022-07-22 15:28:11,15.08824392,0.0001228,53.2166,341.967,68.3386,291.7737,2.6613e-05,1.36e-06,0.0,0 STARLINK-3231,1 49744U 21115W   22203.64457590  .00000136  00000-0  26613-4 0  9999,2 49744  53.2166 341.9670 0001228  68.3386 291.7737 15.08824392 36456,6917.928000000001,95.439,540.643,538.944,0.0
